STARLINK Q              
1 53146U 22083Q   22202.75001157 -.01295373  47543-3 -42192-2 0  9996
2 53146  53.2174  26.5951 0036293  52.6303  44.8745 15.88901187  1307
STARLINK R              
1 53147U 22083R   22202.75001157 -.01286755  47006-3 -41654-2 0  9997
2 53147  53.2174  26.5936 0036822  52.4404  46.1167 15.88985789  1302
STARLINK S              
1 53148U 22083S   22202.75001157 -.01284848  46863-3 -41630-2 0  9993
2 53148  53.2174  26.5940 0037114  52.5659  45.5653 15.88949224  1303
STARLINK T              
1 53149U 22083T   22202.75001157 -.01300627  48041-3 -41554-2 0  9993
2 53149  53.2174  26.5882 0037070  52.5836  48.6553 15.89226320  1306
STARLINK U              
1 53150U 22083U   22202.75001157 -.01292634  47408-3 -41990-2 0  9993
2 53150  53.2174  26.5928 0035408  52.2515  46.5059 15.89007756  1301
STARLINK V              
1 53151U 22083V   22202.75001157 -.01288681  47166-3 -41636-2 0  9999
2 53151  53.2174  26.5921 0036290  52.4951  46.9236 15.89057145  1309
STARLINK W              
1 53152U 22083W   22202.75001157 -.01286801  47024-3 -41597-2 0  9991
2 53152  53.2174  26.5925 0036705  52.6540  46.3453 15.89020469  1305
STARLINK X              
1 53153U 22083X   22202.75001157 -.01287109  47069-3 -41520-2 0  9999
2 53153  53.2174  26.5918 0036473  52.3317  47.2583 15.89075763  1300
STARLINK Y              
1 53154U 22083Y   22202.75001157 -.01285916  46973-3 -41512-2 0  9998
2 53154  53.2174  26.5921 0036828  52.4687  46.7181 15.89038803  1302
STARLINK Z              
1 53155U 22083Z   22202.75001157 -.01290278  47305-3 -41505-2 0  9998
2 53155  53.2174  26.5906 0036463  52.3970  47.8073 15.89131561  1302
STARLINK AA             
1 53156U 22083AA  22202.75001157 -.01288862  47202-3 -41508-2 0  9994
2 53156  53.2174  26.5905 0036399  52.3013  47.6999 15.89112697  1302
STARLINK AB             
1 53157U 22083AB  22202.75001157 -.01289547  47272-3 -41253-2 0  9990
2 53157  53.2174  26.5899 0037564  52.7600  47.8407 15.89167671  1304
STARLINK AC             
1 53158U 22083AC  22202.75001157 -.01290410  47297-3 -41675-2 0  9997
2 53158  53.2174  26.5909 0035826  52.3195  47.5055 15.89094289  1301
STARLINK AD             
1 53159U 22083AD  22202.75001157 -.01324124  49632-3 -42274-2 0  9999
2 53159  53.2174  26.5891 0037424  52.5163  48.5107 15.89221442  1307
STARLINK AE             
1 53160U 22083AE  22202.75001157 -.01287045  47096-3 -41379-2 0  9998
2 53160  53.2174  26.5898 0036365  52.3481  48.0625 15.89147497  1307
STARLINK AF             
1 53161U 22083AF  22202.75001157 -.01305546  48390-3 -41667-2 0  9994
2 53161  53.2174  26.5878 0036810  52.4471  49.1932 15.89264286  1300
STARLINK AG             
1 53162U 22083AG  22202.75001157 -.01304082  48258-3 -41689-2 0  9996
2 53162  53.2174  26.5890 0037431  52.5199  48.3010 15.89192180  1304
STARLINK AH             
1 53163U 22083AH  22202.75001157 -.01305395  48396-3 -41536-2 0  9999
2 53163  53.2174  26.5871 0037143  52.4694  49.5432 15.89301477  1305
STARLINK AJ             
1 53164U 22083AJ  22202.75001157 -.01303989  48276-3 -41534-2 0  9992
2 53164  53.2174  26.5878 0037702  52.4575  48.9898 15.89245087  1305
STARLINK AK             
1 53165U 22083AK  22202.75001157 -.01288181  47251-3 -40983-2 0  9998
2 53165  53.2174  26.5862 0036738  52.3037  50.1392 15.89327040  1303
STARLINK AL             
1 53166U 22083AL  22202.75001157 -.01290177  47362-3 -41098-2 0  9998
2 53166  53.2174  26.5870 0037181  52.5466  49.2900 15.89274739  1304
STARLINK AM             
1 53167U 22083AM  22202.75001157 -.01285271  47095-3 -40572-2 0  9997
2 53167  53.2174  26.5841 0037752  52.8374  50.6669 15.89411731  1301
STARLINK AN             
1 53168U 22083AN  22202.75001157 -.01291032  47435-3 -41129-2 0  9997
2 53168  53.2174  26.5863 0036579  52.3597  49.8641 15.89311658  1301
STARLINK AP             
1 53169U 22083AP  22202.75001157 -.01291537  47508-3 -40902-2 0  9997
2 53169  53.2174  26.5847 0037001  52.3851  50.8837 15.89399147  1306
STARLINK AQ             
1 53170U 22083AQ  22202.75001157 -.01290281  47400-3 -41011-2 0  9997
2 53170  53.2174  26.5855 0036745  52.2838  50.3745 15.89345210  1300
STARLINK AR             
1 53171U 22083AR  22202.75001157 -.01289223  47422-3 -40547-2 0  9999
2 53171  53.2174  26.5809 0036655  52.4415  52.6992 15.89554382  1304
STARLINK AS             
1 53172U 22083AS  22202.75001157 -.01310444  48771-3 -41487-2 0  9992
2 53172  53.2173  26.5856 0037529  50.7538  52.1000 15.89374561  1308
STARLINK AT             
1 53173U 22083AT  22202.75001157 -.01310575  48828-3 -41211-2 0  9996
2 53173  53.2173  26.5836 0037910  50.8158  53.2727 15.89480107  1302
STARLINK AU             
1 53174U 22083AU  22202.75001157 -.01310158  48760-3 -41375-2 0  9990
2 53174  53.2173  26.5853 0037982  50.9263  52.1189 15.89392704  1304
STARLINK AV             
1 53175U 22083AV  22202.75001157 -.01311003  48915-3 -40948-2 0  9998
2 53175  53.2173  26.5808 0037980  50.8819  54.5929 15.89604925  1308
STARLINK AW             
1 53176U 22083AW  22202.75001157 -.01310462  48804-3 -41282-2 0  9996
2 53176  53.2173  26.5840 0037917  50.7752  52.9046 15.89444830  1309
STARLINK AX             
1 53177U 22083AX  22202.75001157 -.01310633  48848-3 -41118-2 0  9993
2 53177  53.2173  26.5830 0038056  50.7711  53.7371 15.89514782  1303
STARLINK AY             
1 53178U 22083AY  22202.75001157 -.01329923  52919-3 -29691-2 0  9992
2 53178  53.2174  26.5089 0048134  51.7943  94.5421 15.95007491  1307
STARLINK AZ             
1 53179U 22083AZ  22202.75001157 -.01311551  48968-3 -40962-2 0  9994
2 53179  53.2173  26.5802 0037486  50.6871  55.2215 15.89638936  1308
STARLINK BA             
1 53180U 22083BA  22202.75001157 -.01310317  48818-3 -41092-2 0  9994
2 53180  53.2173  26.5829 0038448  50.8131  53.5095 15.89496213  1306
STARLINK BB             
1 53181U 22083BB  22202.75001157 -.01310944  48886-3 -41073-2 0  9995
2 53181  53.2173  26.5825 0037892  50.6244  54.2635 15.89551278  1309
STARLINK BC             
1 53182U 22083BC  22202.75001157 -.01310798  48868-3 -41095-2 0  9997
2 53182  53.2173  26.5823 0037964  50.6961  53.9790 15.89534067  1309
STARLINK BD             
1 53183U 22083BD  22202.75001157 -.01310281  48857-3 -40840-2 0  9990
2 53183  53.2173  26.5817 0038847  51.1705  54.1013 15.89587050  1307
STARLINK BE             
1 53184U 22083BE  22202.75001157 -.01311600  48964-3 -41015-2 0  9991
2 53184  53.2173  26.5802 0037362  50.5267  55.1474 15.89622880  1302
